STARLINK-5090           
1 56137U 23046AX  26179.53663345  .00000311  00000+0  20837-4 0  9995
2 56137  43.0011 240.9015 0001232 273.5944  86.4766 15.27576186179154
STARLINK-4774           
1 56138U 23046AY  26179.49182225  .00001383  00000+0  59786-4 0  9999
2 56138  43.0072 241.4228 0001728 283.5268  76.5391 15.27571387179145
STARLINK-5375           
1 56140U 23046BA  26179.50594308  .00001358  00000+0  58883-4 0  9992
2 56140  43.0024 241.5276 0001742 273.2140  86.8512 15.27574614179145
STARLINK-5377           
1 56141U 23046BB  26179.54049072  .00000070  00000+0  12055-4 0  9991
2 56141  43.0015 240.9312 0001183 271.8685  88.2031 15.27574606179151
STARLINK-5376           
1 56142U 23046BC  26179.45326047  .00000491  00000+0  27350-4 0  9993
2 56142  43.0000 241.1418 0001248 273.1272  86.9437 15.27574192179149
STARLINK-5016           
1 56143U 23046BD  26179.55983573  .00021782  00000+0  10711-2 0  9995
2 56143  42.9981 251.3116 0003280 344.5983  15.4765 15.17630597179034
STARLINK-5374           
1 56144U 23046BE  26179.53278102 -.00000150  00000+0  40628-5 0  9999
2 56144  43.0010 240.8709 0001338 268.2832  91.7867 15.27573290179158
STARLINK-5111           
1 56146U 23046BG  26179.47897233  .00000803  00000+0  38729-4 0  9998
2 56146  43.0020 241.3306 0001265 266.5846  93.4861 15.27557970179144
STARLINK-5089           
1 56148U 23046BJ  26179.52958492  .00000986  00000+0  45363-4 0  9995
2 56148  43.0049 204.3246 0002245 271.0884  88.9710 15.27572388179570
STARLINK-30107          
1 56287U 23056B   26179.61848084  .00002819  00000+0  11194-3 0  9996
2 56287  43.0034 284.6888 0001466 268.2542  91.8142 15.27572283177264
STARLINK-30106          
1 56288U 23056C   26179.60716884  .00001432  00000+0  61574-4 0  9996
2 56288  43.0025 302.5055 0001973 261.2508  98.8120 15.27573216177001
STARLINK-30095          
1 56289U 23056D   26179.56411194 -.00006149  00000+0 -21391-3 0  9992
2 56289  43.0009 276.8742 0001795 281.7873  78.2777 15.27610145177298
STARLINK-30103          
1 56290U 23056E   26179.61102513  .00002211  00000+0  89867-4 0  9999
2 56290  43.0039 302.5236 0002091 262.4681  97.5933 15.27570170177001
STARLINK-30113          
1 56291U 23056F   26179.08020480 -.00004669  00000+0 -16006-3 0  9998
2 56291  43.0041 305.4221 0001896 271.5070  88.5564 15.27610617176927
STARLINK-30098          
1 56292U 23056G   26179.61487466  .00000923  00000+0  43058-4 0  9994
2 56292  43.0017 302.5427 0001924 279.8192  80.2442 15.27580586177000
STARLINK-30049          
1 56294U 23056J   26179.62899577  .00001258  00000+0  55251-4 0  9997
2 56294  43.0008 302.5832 0001516 268.8568  91.2110 15.27578508177009
STARLINK-30083          
1 56295U 23056K   26179.55141114  .00004961  00000+0  18964-3 0  9990
2 56295  43.0008 277.6274 0001221 267.6653  92.4059 15.27586007177274
STARLINK-30089          
1 56296U 23056L   26179.49936546  .00002605  00000+0  10412-3 0  9998
2 56296  43.0034 263.3431 0001500 267.3504  92.7176 15.27593033177442
STARLINK-30086          
1 56297U 23056M   26179.62385639  .00001320  00000+0  57490-4 0  9996
2 56297  43.0046 302.5441 0001775 285.1793  74.8862 15.27577009177005
STARLINK-30109          
1 56298U 23056N   26179.07506393  .00000313  00000+0  20884-4 0  9996
2 56298  43.0039 305.3132 0001024 303.0625  57.0128 15.27584589176982
STARLINK-30108          
1 56299U 23056P   26179.62001526  .00003085  00000+0  12161-3 0  9993
2 56299  42.9999 291.2301 0000176  45.6261 314.4605 15.27571559177196
STARLINK-30104          
1 56300U 23056Q   26179.62129897 -.00000091  00000+0  62351-5 0  9991
2 56300  43.0035 302.6059 0001410 276.4637  83.6054 15.27580322177069
STARLINK-30101          
1 56301U 23056R   26179.63155561  .00023343  00000+0  82280-3 0  9995
2 56301  42.9997 301.8082 0001482 331.1521  28.9249 15.28842786177077
STARLINK-30111          
1 56302U 23056S   26179.58916497  .00002189  00000+0  89079-4 0  9992
2 56302  43.0039 302.2892 0001246 283.0805  76.9907 15.27573342177060
STARLINK-30099          
1 56304U 23056U   26179.06992545 -.00000359  00000+0 -35304-5 0  9997
2 56304  43.0018 305.2582 0000796 264.0041  96.0720 15.27575433176987
STARLINK-30094          
1 56305U 23056V   26179.07633635  .00002320  00000+0  93860-4 0  9999
2 56305  43.0120 305.2934 0004159 265.7273  94.3103 15.27574630176989
STARLINK-30112          
1 56306U 23056W   26179.65073276 -.00004977  00000+0 -17166-3 0  9999
2 56306  43.0059 301.8891 0001623 287.6117  72.4557 15.27537488177079
STARLINK-6038           
1 56317U 23058A   26179.58567221 -.00000806  00000+0 -51950-4 0  9990
2 56317  97.2994 179.1363 0001577  95.2634 264.8773 15.05653027174534
STARLINK-5954           
1 56318U 23058B   26179.55798599  .00000565  00000+0  43089-4 0  9996
2 56318  97.3006 179.1745 0001518  90.5967 269.5435 15.05652347174537
