OBJECT_NAME,OBJECT_ID,EPOCH,MEAN_MOTION,ECCENTRICITY,INCLINATION,RA_OF_ASC_NODE,ARG_OF_PERICENTER,MEAN_ANOMALY,EPHEMERIS_TYPE,CLASSIFICATION_TYPE,NORAD_CAT_ID,ELEMENT_SET_NO,REV_AT_EPOCH,BSTAR,MEAN_MOTION_DOT,MEAN_MOTION_DDOT
STARLINK-5090,2023-046AX,2026-06-28T12:52:45.130080,15.27576186,.00012327,43.0011,240.9015,273.5944,86.4766,0,U,56137,999,17915,.20837389E-4,.311E-5,0
STARLINK-4774,2023-046AY,2026-06-28T11:48:13.442400,15.27571387,.00017284,43.0072,241.4228,283.5268,76.5391,0,U,56138,999,17914,.59785863E-4,.1383E-4,0
STARLINK-5375,2023-046BA,2026-06-28T12:08:33.482112,15.27574614,.00017429,43.0024,241.5276,273.2140,86.8512,0,U,56140,999,17914,.58882755E-4,.1358E-4,0
STARLINK-5377,2023-046BB,2026-06-28T12:58:18.398208,15.27574606,.00011834,43.0015,240.9312,271.8685,88.2031,0,U,56141,999,17915,.12055291E-4,.7E-6,0
STARLINK-5376,2023-046BC,2026-06-28T10:52:41.704608,15.27574192,.00012481,43.0000,241.1418,273.1272,86.9437,0,U,56142,999,17914,.27350311E-4,.491E-5,0
STARLINK-5016,2023-046BD,2026-06-28T13:26:09.807072,15.17630597,.00032803,42.9981,251.3116,344.5983,15.4765,0,U,56143,999,17903,.10710543E-2,.21782E-3,0
STARLINK-5374,2023-046BE,2026-06-28T12:47:12.280128,15.27573290,.00013381,43.0010,240.8709,268.2832,91.7867,0,U,56144,999,17915,.4062818E-5,-.15E-5,0
STARLINK-5111,2023-046BG,2026-06-28T11:29:43.209312,15.27557970,.00012655,43.0020,241.3306,266.5846,93.4861,0,U,56146,999,17914,.38729173E-4,.803E-5,0
STARLINK-5089,2023-046BJ,2026-06-28T12:42:36.137088,15.27572388,.00022453,43.0049,204.3246,271.0884,88.9710,0,U,56148,999,17957,.45363432E-4,.986E-5,0
STARLINK-30107,2023-056B,2026-06-28T14:50:36.744576,15.27572283,.00014662,43.0034,284.6888,268.2542,91.8142,0,U,56287,999,17726,.11193924E-3,.2819E-4,0
STARLINK-30106,2023-056C,2026-06-28T14:34:19.387776,15.27573216,.00019731,43.0025,302.5055,261.2508,98.8120,0,U,56288,999,17700,.61573644E-4,.1432E-4,0
STARLINK-30095,2023-056D,2026-06-28T13:32:19.271616,15.27610145,.00017956,43.0009,276.8742,281.7873,78.2777,0,U,56289,999,17729,-.21391244E-3,-.6149E-4,0
STARLINK-30103,2023-056E,2026-06-28T14:39:52.571232,15.27570170,.00020914,43.0039,302.5236,262.4681,97.5933,0,U,56290,999,17700,.8986706E-4,.2211E-4,0
STARLINK-30113,2023-056F,2026-06-28T01:55:29.694720,15.27610617,.00018969,43.0041,305.4221,271.5070,88.5564,0,U,56291,999,17692,-.16006302E-3,-.4669E-4,0
STARLINK-30098,2023-056G,2026-06-28T14:45:25.170624,15.27580586,.00019244,43.0017,302.5427,279.8192,80.2442,0,U,56292,999,17700,.43057811E-4,.923E-5,0
STARLINK-30049,2023-056J,2026-06-28T15:05:45.234528,15.27578508,.0001516,43.0008,302.5832,268.8568,91.2110,0,U,56294,999,17700,.55251152E-4,.1258E-4,0
STARLINK-30083,2023-056K,2026-06-28T13:14:01.922496,15.27586007,.00012217,43.0008,277.6274,267.6653,92.4059,0,U,56295,999,17727,.1896362E-3,.4961E-4,0
STARLINK-30089,2023-056L,2026-06-28T11:59:05.175744,15.27593033,.00015006,43.0034,263.3431,267.3504,92.7176,0,U,56296,999,17744,.104118E-3,.2605E-4,0
STARLINK-30086,2023-056M,2026-06-28T14:58:21.192096,15.27577009,.00017753,43.0046,302.5441,285.1793,74.8862,0,U,56297,999,17700,.57490262E-4,.132E-4,0
STARLINK-30109,2023-056N,2026-06-28T01:48:05.523552,15.27584589,.0001024,43.0039,305.3132,303.0625,57.0128,0,U,56298,999,17698,.20883693E-4,.313E-5,0
STARLINK-30108,2023-056P,2026-06-28T14:52:49.318464,15.27571559,.00001764,42.9999,291.2301,45.6261,314.4605,0,U,56299,999,17719,.12161002E-3,.3085E-4,0
STARLINK-30104,2023-056Q,2026-06-28T14:54:40.231008,15.27580322,.00014103,43.0035,302.6059,276.4637,83.6054,0,U,56300,999,17706,.6235135E-5,-.91E-6,0
STARLINK-30101,2023-056R,2026-06-28T15:09:26.404704,15.28842786,.00014829,42.9997,301.8082,331.1521,28.9249,0,U,56301,999,17707,.82279948E-3,.23343E-3,0
STARLINK-30111,2023-056S,2026-06-28T14:08:23.853408,15.27573342,.00012467,43.0039,302.2892,283.0805,76.9907,0,U,56302,999,17706,.89078786E-4,.2189E-4,0
STARLINK-30099,2023-056U,2026-06-28T01:40:41.558880,15.27575433,.00007961,43.0018,305.2582,264.0041,96.0720,0,U,56304,999,17698,-.3530449E-5,-.359E-5,0
STARLINK-30094,2023-056V,2026-06-28T01:49:55.460640,15.27574630,.00041592,43.0120,305.2934,265.7273,94.3103,0,U,56305,999,17698,.93859726E-4,.232E-4,0
STARLINK-30112,2023-056W,2026-06-28T15:37:03.310464,15.27537488,.00016238,43.0059,301.8891,287.6117,72.4557,0,U,56306,999,17707,-.17165718E-3,-.4977E-4,0
STARLINK-6038,2023-058A,2026-06-28T14:03:22.078944,15.05653027,.00015773,97.2994,179.1363,95.2634,264.8773,0,U,56317,999,17453,-.5194959E-4,-.806E-5,0
STARLINK-5954,2023-058B,2026-06-28T13:23:29.989536,15.05652347,.00015187,97.3006,179.1745,90.5967,269.5435,0,U,56318,999,17453,.43088737E-4,.565E-5,0
